      2.10          N: GNSS NAV DATA                        RINEX VERSION / TYPE
fic2rin                                 10/29/2023 00:17:51 PGM / RUN BY / DATE
                                                            END OF HEADER
23 23 10 28 22  0  0.0  .898903235793D-04  .602540239925D-11  .000000000000D+00
     .126000000000D+03  .221562500000D+02  .398195157855D-08  .234112697526D+01
     .122562050819D-05  .380193744786D-02  .112801790237D-04  .515369088364D+04
     .597600000000D+06 -.521540641785D-07  .636229556326D+00  .707805156708D-07
     .976201313675D+00  .167406250000D+03 -.306327522303D+01 -.770746390395D-08
     .718601361203D-09  .100000000000D+01  .228500000000D+04  .000000000000D+00
     .240000000000D+01  .000000000000D+00 -.838190317154D-08  .126000000000D+03
     .590400000000D+06  .400000000000D+01
26 23 10 28 22  0  0.0  .220335088670D-03 -.238742359215D-11  .000000000000D+00
     .980000000000D+02  .144531250000D+03  .512628495892D-08  .917973091115D+00
     .776909291744D-05  .841076939832D-02  .944919884205D-05  .515378501892D+04
     .597600000000D+06  .279396772385D-07 -.254974042461D+01  .670552253723D-07
     .933010866390D+00  .179156250000D+03  .485133468373D+00 -.852892669260D-08
     .179650340301D-09  .100000000000D+01  .228500000000D+04  .000000000000D+00
     .240000000000D+01  .000000000000D+00  .698491930962D-08  .980000000000D+02
     .590400000000D+06  .400000000000D+01
17 23 10 28 22  0  0.0  .723642297089D-03 -.341060513165D-12  .000000000000D+00
     .880000000000D+02 -.365000000000D+02  .482912972407D-08 -.866290208350D+00
    -.181235373020D-05  .138341378188D-01  .122003257275D-05  .515360117531D+04
     .597600000000D+06 -.167638063431D-06 -.136729020972D+01 -.111758708954D-07
     .971713875372D+00  .365562500000D+03 -.138556111587D+01 -.876715090131D-08
    -.174650132022D-09  .100000000000D+01  .228500000000D+04  .000000000000D+00
     .240000000000D+01  .000000000000D+00 -.111758708954D-07  .880000000000D+02
     .590400000000D+06  .400000000000D+01
25 23 10 28 22  0  0.0  .474892091006D-03  .170530256582D-11  .000000000000D+00
     .890000000000D+02  .156125000000D+03  .473448292450D-08  .168433772478D+01
     .792369246483D-05  .113340084208D-01  .917911529541D-05  .515366900063D+04
     .597600000000D+06 -.244006514549D-06 -.249119935849D+01 -.171363353729D-06
     .952194261844D+00  .196625000000D+03  .105519673654D+01 -.827355891265D-08
     .390373403476D-09  .100000000000D+01  .228500000000D+04  .000000000000D+00
     .240000000000D+01  .000000000000D+00  .558793544769D-08  .890000000000D+02
     .590400000000D+06  .400000000000D+01
14 23 10 28 22  0  0.0  .227396842092D-03  .109139364213D-10  .000000000000D+00
     .180000000000D+02  .136000000000D+03  .488091759552D-08  .180258543408D+01
     .713206827641D-05  .365423457697D-02  .773556530476D-05  .515368570328D+04
     .597600000000D+06 -.745058059692D-08 -.244819314525D+01  .149011611938D-06
     .947697526697D+00  .223656250000D+03 -.294657084841D+01 -.837249160502D-08
     .291083553370D-09  .100000000000D+01  .228500000000D+04  .000000000000D+00
     .240000000000D+01  .000000000000D+00 -.791624188423D-08  .530000000000D+03
     .590400000000D+06  .400000000000D+01
18 23 10 28 22  0  0.0 -.462828204036D-03 -.113686837722D-10  .000000000000D+00
     .850000000000D+02 -.140906250000D+03  .390480550797D-08 -.295035746996D+01
    -.729411840439D-05  .382060976699D-02  .113230198622D-04  .515365753937D+04
     .597600000000D+06 -.298023223877D-07 -.363086417447D+00 -.130385160446D-07
     .974580562827D+00  .167343750000D+03 -.305844293105D+01 -.776103756408D-08
    -.306084178206D-09  .100000000000D+01  .228500000000D+04  .000000000000D+00
     .240000000000D+01  .000000000000D+00 -.838190317154D-08  .853000000000D+03
     .590400000000D+06  .400000000000D+01
28 23 10 28 22  0  0.0 -.344235450029D-04 -.761701812735D-11  .000000000000D+00
     .138000000000D+03 -.183125000000D+02  .449840166220D-08  .116427649185D+01
    -.862404704094D-06  .760702416301D-03  .121910125017D-04  .515377603531D+04
     .597600000000D+06 -.372529029846D-07  .272592126104D+01 -.484287738800D-07
     .961734278333D+00  .144843750000D+03  .156224170705D+01 -.790175771135D-08
    -.564666377764D-09  .100000000000D+01  .228500000000D+04  .000000000000D+00
     .240000000000D+01  .000000000000D+00 -.977888703346D-08  .906000000000D+03
     .590400000000D+06  .400000000000D+01
8  23 10 28 21 59 44.0 -.149419065565D-03 -.193267624127D-11  .000000000000D+00
     .900000000000D+01 -.110000000000D+02  .505021036153D-08 -.916097634526D+00
    -.571832060814D-06  .879570818506D-02  .307336449623D-06  .515376662254D+04
     .597584000000D+06  .212341547012D-06 -.145878066898D+01 -.558793544769D-07
     .956043889808D+00  .371375000000D+03  .273894582843D+00 -.869714798541D-08
    -.121790787361D-09  .100000000000D+01  .228500000000D+04  .000000000000D+00
     .240000000000D+01  .000000000000D+00  .512227416039D-08  .900000000000D+01
     .596340000000D+06  .400000000000D+01
12 23 10 28 21 59 44.0 -.440964009613D-03 -.420641299570D-11  .000000000000D+00
     .500000000000D+01  .150343750000D+03  .442018411841D-08  .187123226955D+01
     .753253698349D-05  .865752797108D-02  .755116343498D-05  .515377643967D+04
     .597584000000D+06  .558793544769D-07 -.240708903420D+01 -.214204192162D-06
     .964326702295D+00  .232531250000D+03  .139552742376D+01 -.808355099806D-08
     .391802034413D-09  .100000000000D+01  .228500000000D+04  .000000000000D+00
     .240000000000D+01  .000000000000D+00 -.125728547573D-07  .500000000000D+01
     .596400000000D+06  .400000000000D+01
12 23 10 28 23 59 44.0 -.440993811935D-03 -.420641299570D-11  .000000000000D+00
     .650000000000D+02  .143375000000D+03  .443589905872D-08  .292137379611D+01
     .735744833946D-05  .865838397294D-02  .730343163013D-05  .515377499771D+04
     .604784000000D+06  .124797224998D-06 -.240714651664D+01 -.838190317154D-07
     .964329723221D+00  .237281250000D+03  .139550298572D+01 -.799497587998D-08
     .369301097159D-09  .100000000000D+01  .228500000000D+04  .000000000000D+00
     .240000000000D+01  .000000000000D+00 -.125728547573D-07  .650000000000D+02
     .597600000000D+06  .400000000000D+01
8  23 10 28 23 59 44.0 -.149432569742D-03 -.193267624127D-11  .000000000000D+00
     .650000000000D+02 -.690625000000D+01  .522271754715D-08  .134019867997D+00
    -.417232513428D-06  .879638653714D-02 -.212341547012D-06  .515376773453D+04
     .604784000000D+06  .316649675369D-07 -.145884391093D+01  .968575477600D-07
     .956041850501D+00  .376812500000D+03  .273905624949D+00 -.892251451569D-08
    -.162149611325D-09  .100000000000D+01  .228500000000D+04  .000000000000D+00
     .240000000000D+01  .000000000000D+00  .512227416039D-08  .650000000000D+02
     .597600000000D+06  .400000000000D+01
28 23 10 28 23 59 44.0 -.344780273736D-04 -.761701812735D-11  .000000000000D+00
     .140000000000D+03 -.112812500000D+02  .440232623170D-08  .221130556511D+01
    -.605359673500D-06  .760213122703D-03  .121667981148D-04  .515377723312D+04
     .604784000000D+06  .335276126862D-07  .272586482458D+01 -.353902578354D-07
     .961730521559D+00  .147906250000D+03  .156299703799D+01 -.783068332225D-08
    -.567880797372D-09  .100000000000D+01  .228500000000D+04  .000000000000D+00
     .240000000000D+01  .000000000000D+00 -.977888703346D-08  .908000000000D+03
     .597600000000D+06  .400000000000D+01
3  23 10 29  0  0  0.0 -.501247122884D-04  .239879227593D-10  .000000000000D+00
     .140000000000D+02  .180000000000D+02  .385337479424D-08  .311253941653D+01
     .105984508991D-05  .510178634431D-02  .107586383820D-04  .515357315826D+04
     .000000000000D+00  .521540641785D-07  .546311577464D+00 -.279396772385D-07
     .981335844531D+00  .180718750000D+03  .111813829097D+01 -.753138514099D-08
     .643241079287D-09  .100000000000D+01  .228600000000D+04  .000000000000D+00
     .240000000000D+01  .000000000000D+00  .186264514923D-08  .140000000000D+02
    -.720000000000D+04  .400000000000D+01
2  23 10 29  0  0  0.0 -.536144245416D-03  .488853402203D-11  .000000000000D+00
     .740000000000D+02 -.146718750000D+03  .423839083170D-08  .658623084124D+00
    -.784173607826D-05  .161309096729D-01  .972859561443D-05  .515374046135D+04
     .000000000000D+00 -.949949026108D-07 -.584261262632D+00 -.257045030594D-06
     .967793129108D+00  .206062500000D+03 -.132513192868D+01 -.823570019283D-08
    -.513592821774D-09  .100000000000D+01  .228600000000D+04  .000000000000D+00
     .240000000000D+01  .000000000000D+00 -.176951289177D-07  .740000000000D+02
    -.720000000000D+04  .400000000000D+01
1  23 10 29  0  0  0.0  .163337681442D-03 -.227373675443D-12  .000000000000D+00
     .650000000000D+02 -.134812500000D+03  .350621747660D-08 -.197446041252D+01
    -.688806176186D-05  .128936732654D-01  .105481594801D-04  .515363704109D+04
     .000000000000D+00  .184401869774D-06 -.482300742562D+00 -.141561031342D-06
     .990685032134D+00  .190968750000D+03  .990395620124D+00 -.741602319285D-08
    -.280011663610D-09  .100000000000D+01  .228600000000D+04  .000000000000D+00
     .240000000000D+01  .630000000000D+02  .512227416039D-08  .650000000000D+02
    -.720000000000D+04  .400000000000D+01
